IRIDIUM 144             
1 43249U 18030A   24253.94156334  .00000514  00000+0  17647-3 0  9992
2 43249  86.4022 200.0596 0002182  89.7298 270.4148 14.34215486337652
IRIDIUM 149             
1 43250U 18030B   24253.94790189  .00003242  00000+0  11502-2 0  9990
2 43250  86.4016 200.0312 0002554  89.9069 270.2420 14.34219150337679
IRIDIUM 157             
1 43251U 18030C   24253.89716557  .00001304  00000+0  45852-3 0  9995
2 43251  86.4023 200.0910 0002646  83.0678 277.0819 14.34219655337649
IRIDIUM 140             
1 43252U 18030D   24254.26502739  .00001318  00000+0  46347-3 0  9998
2 43252  86.4022 199.9520 0002008  83.1882 276.9542 14.34224957337756
IRIDIUM 145             
1 43253U 18030E   24253.90349793  .00001371  00000+0  48246-3 0  9997
2 43253  86.4014 200.0770 0002289  96.9419 263.2037 14.34220547337634
IRIDIUM 146             
1 43254U 18030F   24253.95424953  .00001240  00000+0  43550-3 0  9993
2 43254  86.4022 200.0697 0002190  89.1754 270.9693 14.34217225337653
IRIDIUM 148             
1 43255U 18030G   24254.41091512  .00001730  00000+0  61062-3 0  9999
2 43255  86.4023 199.9121 0002432  89.7201 270.4273 14.34217208337767
IRIDIUM 142             
1 43256U 18030H   24254.10012400  .00000565  00000+0  19453-3 0  9997
2 43256  86.4019 199.9540 0002307  98.1187 262.0271 14.34212653337670
